CZ-2D R/B               
1 53317U 22088B   22232.48778966  .00025547  00000+0  99213-3 0  9994
2 53317  34.9997 346.5566 0007695  96.5527 310.4649 15.25136473  3342
YAOGAN-35 03B           
1 53318U 22088C   22232.44227361  .00006185  00000+0  25805-3 0  9992
2 53318  34.9985 347.0567 0004103  54.2999  21.6003 15.22996976  3335
CZ-2D DEB               
1 53319U 22088D   22232.56264694  .00016064  00000+0  62625-3 0  9994
2 53319  34.9987 346.0509 0007500 109.8920   0.8142 15.25082038  3351
YAOGAN-35 03C           
1 53320U 22088E   22232.57762010  .00009672  00000+0  40296-3 0  9999
2 53320  34.9980 346.1551 0004622  61.2090  56.8846 15.22955669  3364
RS4S                    
1 53321U 98067TZ  22232.57525727  .00037033  00000+0  60728-3 0  9996
2 53321  51.6426  17.4156 0002138 138.8274 221.2877 15.52079666  4708
COSMOS 2558             
1 53323U 22089A   22232.54276478  .00012737  00000+0  30709-3 0  9992
2 53323  97.2342 330.5434 0011002 197.1591 162.9286 15.41300515  2881
SL-4 R/B                
1 53324U 22089B   22232.49361333  .00074356  37505-5  39546-3 0  9991
2 53324  97.2525 331.4380 0099541   0.1676 359.9604 15.73497818  2932
2022-090A               
1 53346U 22090A   22232.49541659  .00002648  00000+0  11676-3 0  9991
2 53346  97.4714 305.2195 0010436 197.0208 288.4795 15.22641113  2495
2022-090B               
1 53347U 22090B   22232.49750000  .00008095  00000+0  33975-3 0  9992
2 53347  97.4712 305.2441 0012202 215.3777 333.8349 15.23667924  2484
2022-090C               
1 53348U 22090C   22232.48587079  .00010879  00000+0  45426-3 0  9993
2 53348  97.4706 305.2310 0011785 216.5544 271.6356 15.23757935  2482
CZ-4B R/B               
1 53349U 22090D   22232.53622497  .00055135  30378-5  37883-3 0  9993
2 53349  97.5144 306.3265 0153440 329.8040  29.4437 15.60386064  2565
SBIRS GEO-6 (USA 336)   
1 53355U 22092A   22231.16773760  .00000107  00000+0  00000+0 0  9999
2 53355   6.5779 312.4407 0006822 175.4879 113.1313  1.00483624   211
ATLAS 5 CENTAUR R/B     
1 53356U 22092B   22230.22917870 -.00000277  00000+0  00000+0 0  9997
2 53356  16.4572 311.9550 5659067 179.2513 182.2652  1.99526488   276
PRC TEST SPACECRAFT2    
1 53357U 22093A   22232.62685322  .00001717  00000+0  42317-4 0  9990
2 53357  49.9924  84.5948 0180574 214.4019 144.5141 15.32184659  2451
CZ-2F R/B               
1 53358U 22093B   22232.29843739  .00008949  00000+0  17618-3 0  9991
2 53358  49.9901  86.2082 0179401 212.9208 146.0475 15.32512626  2394
CZ-2F DEB               
1 53359U 22093C   22232.46534972  .00110202  00000+0  20051-2 0  9997
2 53359  50.3030  86.7419 0232395 229.4990 128.5514 15.24286525  2415
CZ-2F DEB               
1 53360U 22093D   22232.44261856  .00095238  00000+0  19024-2 0  9994
2 53360  50.3302  87.3578 0244498 223.3900 134.7582 15.19932384  2399
CZ-2F DEB               
1 53361U 22093E   22232.48773109  .00075997  00000+0  20008-2 0  9992
2 53361  49.7526  89.3990 0336587 211.8436 146.1758 14.96349560  2379
CZ-2F DEB               
1 53362U 22093F   22232.45481254  .00076556  00000+0  20753-2 0  9996
2 53362  49.8056  89.9502 0349758 208.5886 149.5475 14.93126713  2362
2022-093G               
1 53363U 22093G   22232.44051647  .00476766  00000+0  51216-2 0  9990
2 53363  50.0244  84.7789 0189977 226.6509 131.8407 15.43098988  2439
2022-093H               
1 53364U 22093H   22232.43523281  .00000602  00000+0  63572-4 0  9990
2 53364  50.0284  89.2826 0110536 262.5988  96.2417 15.00035313  2364
DANURI (KPLO)           
1 53365U 22094A   22216.96995833  .00001843 -58274-5  00000+0 0  9991
2 53365  29.5000 147.2458 0003300 140.4700 307.5200 16.09976711    07
2022-095A               
1 53367U 22095A   22232.53109611  .00008836  00000+0  33232-3 0  9999
2 53367  97.4098 306.3387 0079835  38.5654  84.7709 15.24374124  1735
2022-095B               
1 53368U 22095B   22232.47693287  .00008962  00000+0  33480-3 0  9995
2 53368  97.4091 306.2890 0079969  38.0182 156.5454 15.24578920  1719
2022-095C               
1 53369U 22095C   22232.47480324  .00007370  00000+0  27523-3 0  9995
2 53369  97.4090 306.2881 0079752  37.5299 150.2888 15.24673044  1717
2022-096A               
1 53370U 22096A   22232.48562593  .00003020  00000+0  12669-3 0  9991
2 53370  97.4355 133.8644 0001906  85.0385  30.8030 15.24258405  1727
2022-096B               
1 53371U 22096B   22232.48248976  .00005097  00000+0  21074-3 0  9994
2 53371  97.4358 133.8642 0002821 110.1831 354.2190 15.24424156  1720
2022-096C               
1 53372U 22096C   22232.48578347  .00004974  00000+0  20566-3 0  9991
2 53372  97.4352 133.8683 0002808 107.1052  15.8598 15.24434821  1706
RS29S (SXC3-2110 CYCLO*)
1 53373U 22096D   22232.55058251  .00007051  00000+0  28928-3 0  9996
2 53373  97.4351 133.9330 0003006 108.7623  13.0749 15.24544589  1710
RS32S (SXC3-212 MONITO*)
1 53374U 22096E   22232.47186988  .00007291  00000+0  29806-3 0  9999
2 53374  97.4354 133.8572 0003444 107.2452 307.0580 15.24649984  1704
RS34S (SXC3-218 KUZBAS*)
1 53375U 22096F   22232.48124851  .00005981  00000+0  24501-3 0  9993
2 53375  97.4353 133.8674 0003377 107.2372 359.4206 15.24660250  1708
RS23S (SXC3-21 UTMN)    
1 53376U 22096G   22232.41780153  .00006511  00000+0  26615-3 0  9998
2 53376  97.4356 133.8038 0003363 104.7167  15.2618 15.24698026  1699
RS28S (SXC3-214 MIET-A*)
1 53377U 22096H   22232.41758039  .00006235  00000+0  25481-3 0  9990
2 53377  97.4355 133.8050 0003361 100.7261  19.2561 15.24724638  1692
RS26S (KAI-1)           
1 53378U 22096J   22232.48011185  .00005654  00000+0  23109-3 0  9991
2 53378  97.4358 133.8667 0003330  94.5637  10.0538 15.24759968  1702
2022-096K               
1 53379U 22096K   22232.54661087  .00005218  00000+0  21154-3 0  9995
2 53379  97.4352 133.9402 0005604  65.9048  56.0138 15.25063908  1719
2022-096L               
1 53380U 22096L   22232.41501063  .00005302  00000+0  21485-3 0  9991
2 53380  97.4354 133.8095 0005737  64.5313  55.6967 15.25072526  1695
RS19S (SXC3-219 ISOI)   
1 53381U 22096M   22232.47710560  .00006317  00000+0  25465-3 0  9991
2 53381  97.4348 133.8717 0006001  62.9340  41.2989 15.25167231  1702
RS8S (SXC3-2111 RESHUC*)
1 53382U 22096N   22232.54596156  .00006097  00000+0  24585-3 0  9990
2 53382  97.4356 133.9395 0005988  61.6605  60.6388 15.25171290  1717
RS21S (CUBESX-HSE-2)    
1 53383U 22096P   22232.41429809  .00006347  00000+0  25540-3 0  9997
2 53383  97.4357 133.8079 0006186  61.6410  60.4465 15.25227960  1699
RS30S (SXC3-217 SIREN)  
1 53384U 22096Q   22232.66488612  .00006150  00000+0  24739-3 0  9993
2 53384  97.4353 134.0585 0006226  60.1381 357.9469 15.25250561  1733
RS20S (GEOSCAN-EDELVEIS)
1 53385U 22096R   22232.41308403  .00007209  00000+0  28808-3 0  9993
2 53385  97.4350 133.8115 0006779  62.0975  60.0417 15.25405710  1722
RS33S (SXC3-215 VIZARD) 
1 53386U 22096S   22232.47371766  .00008886  00000+0  35192-3 0  9998
2 53386  97.4352 133.8763 0007455  61.7086  41.5656 15.25633264  1721
2022-095D               
1 53387U 22095D   22232.45683252  .00004937  00000+0  17761-3 0  9997
2 53387  97.4070 306.2778 0085168  33.9635  95.5209 15.25647028  1725
STARLINK-4522           
1 53388U 22097A   22232.58334491 -.00005226  00000+0 -32833-4 0  9994
2 53388  53.2174 196.6513 0001138  69.6004 116.9665 15.73206423  1301
STARLINK-4523           
1 53389U 22097B   22232.58334491 -.00005168  00000+0 -32419-4 0  9990
2 53389  53.2174 196.6481 0001101  76.8399 110.9193 15.73206372  1306
STARLINK-4517           
1 53390U 22097C   22232.58334491 -.00005251  00000+0 -33013-4 0  9996
2 53390  53.2174 196.6500 0001094  79.5762 107.5868 15.73206434  1305
STARLINK-4521           
1 53391U 22097D   22232.58334491 -.00005271  00000+0 -33156-4 0  9997
2 53391  53.2174 196.6470 0001101  77.3518 111.0035 15.73206442  1301
STARLINK-4535           
1 53392U 22097E   22232.58334491 -.00005291  00000+0 -33301-4 0  9992
2 53392  53.2174 196.6454 0001107  75.5794 113.9682 15.73206451  1305
STARLINK-4530           
1 53393U 22097F   22232.58334491 -.00005249  00000+0 -32997-4 0  9996
2 53393  53.2174 196.6460 0001080  86.5588 102.3926 15.73206420  1305
STARLINK-4544           
1 53394U 22097G   22232.58334491  .00028732  00000+0  16799-3 0  9998
2 53394  53.2190 196.6048 0006472 282.6855 287.5464 15.78137264  1309
STARLINK-4534           
1 53395U 22097H   22232.58334491 -.00005309  00000+0 -33426-4 0  9993
2 53395  53.2174 196.6436 0001089  80.9924 109.1512 15.73206459  1309
STARLINK-4524           
1 53396U 22097J   22232.58334491 -.00005352  00000+0 -33733-4 0  9993
2 53396  53.2174 196.6393 0001086  82.2424 110.2857 15.73206477  1304
STARLINK-4515           
1 53397U 22097K   22232.58334491 -.00005315  00000+0 -33472-4 0  9993
2 53397  53.2174 196.6424 0001100  77.2155 113.5243 15.73206461  1300
STARLINK-4512           
1 53398U 22097L   22232.58334491 -.00005369  00000+0 -33856-4 0  9999
2 53398  53.2174 196.6370 0001092  79.5135 114.2068 15.73206485  1303
STARLINK-4528           
1 53399U 22097M   22232.58334491 -.00005335  00000+0 -33612-4 0  9993
2 53399  53.2174 196.6401 0001106  75.7106 116.2213 15.73206470  1309
STARLINK-4520           
1 53400U 22097N   22232.58334491 -.00005381  00000+0 -33937-4 0  9997
2 53400  53.2174 196.6346 0001129  70.7302 124.1823 15.73206490  1305
STARLINK-4525           
1 53401U 22097P   22232.58334491 -.00005365  00000+0 -33828-4 0  9999
2 53401  53.2174 196.6377 0001081  85.4909 107.6333 15.73206483  1307
STARLINK-4499           
1 53402U 22097Q   22232.58334491 -.00005403  00000+0 -34098-4 0  9993
2 53402  53.2174 196.6335 0001080  86.0319 109.4767 15.73206499  1301
STARLINK-4507           
1 53403U 22097R   22232.58334491 -.00005363  00000+0 -33814-4 0  9994
2 53403  53.2174 196.6354 0001188  62.6785 131.6378 15.73206482  1306
